STARLINK-2229
1 17992C 21024R   21326.19359995  .00003213  00000-0  21528-3 0  3268
2 17992  53.0555  97.8602 0001915  69.2630 228.6893 15.06389376    17
